{
    "links": {
        "self": "http://www.neowsapp.com/rest/v1/neo/3601402?api_key=iIulBulltgU6a56xZRHN4H3l9WmuAYTsLGpBGhQ2"
    },
    "id": "3601402",
    "neo_reference_id": "3601402",
    "name": "(2012 FF)",
    "designation": "2012 FF",
    "nasa_jpl_url": "http://ssd.jpl.nasa.gov/sbdb.cgi?sstr=3601402",
    "absolute_magnitude_h": 24.0,
    "estimated_diameter": {
        "kilometers": {
            "estimated_diameter_min": 0.0421264611,
            "estimated_diameter_max": 0.0941976306
        },
        "meters": {
            "estimated_diameter_min": 42.1264610556,
            "estimated_diameter_max": 94.1976305719
        },
        "miles": {
            "estimated_diameter_min": 0.0261761612,
            "estimated_diameter_max": 0.0585316759
        },
        "feet": {
            "estimated_diameter_min": 138.2101784897,
            "estimated_diameter_max": 309.0473542854
        }
    },
    "is_potentially_hazardous_asteroid": false,
    "close_approach_data": [
        {
            "close_approach_date": "2012-03-11",
            "close_approach_date_full": "2012-Mar-11 20:08",
            "epoch_date_close_approach": 1331496480000,
            "relative_velocity": {
                "kilometers_per_second": "9.4273709487",
                "kilometers_per_hour": "33938.5354154035",
                "miles_per_hour": "21088.0860751989"
            },
            "miss_distance": {
                "astronomical": "0.1602280497",
                "lunar": "62.3287113333",
                "kilometers": "23969774.949374139",
                "miles": "14894127.5036715582"
            },
            "orbiting_body": "Earth"
        }
    ],
    "orbital_data": {
        "orbit_id": "5",
        "orbit_determination_date": "2017-04-06 08:50:29",
        "first_observation_date": "2012-03-16",
        "last_observation_date": "2012-03-17",
        "data_arc_in_days": 1,
        "observations_used": 21,
        "orbit_uncertainty": "9",
        "minimum_orbit_intersection": ".150936",
        "jupiter_tisserand_invariant": "4.393",
        "epoch_osculation": "2456003.5",
        "eccentricity": ".2575555881839925",
        "semi_major_axis": "1.533358832687418",
        "inclination": "17.61315235844732",
        "ascending_node_longitude": "167.3616090173944",
        "orbital_period": "693.5282012925102",
        "perihelion_distance": "1.13843369663749",
        "perihelion_argument": "15.18501335209723",
        "aphelion_distance": "1.928283968737346",
        "perihelion_time": "2456013.517130773411",
        "mean_anomaly": "354.8002589199585",
        "mean_motion": ".5190848754658823",
        "equinox": "J2000",
        "orbit_class": {
            "orbit_class_type": "AMO",
            "orbit_class_description": "Near-Earth asteroid orbits similar to that of 1221 Amor",
            "orbit_class_range": "1.017 AU < q (perihelion) < 1.3 AU"
        }
    },
    "is_sentry_object": false
}